SL-14 R/B               
1 20511U 90018B   26199.80750775  .00000197  00000+0  21732-4 0  9998
2 20511  82.5214 100.5538 0016750  25.5795 334.6244 14.82235375942008
HST                     
1 20580U 90037B   26199.75945338  .00002987  00000+0  89242-4 0  9999
2 20580  28.4721 224.7316 0002157 138.2222 221.8539 15.31081460793414
SL-16 R/B               
1 20625U 90046B   26199.82992409  .00000295  00000+0  17696-3 0  9991
2 20625  70.9992  22.4892 0012309 107.9035 252.3431 14.15027041866948
COSMOS 2084             
1 20663U 90055A   26199.86284197  .00000703  00000+0  61531-4 0  9997
2 20663  62.7878 247.9670 0008530 321.6867  38.3626 15.06230761956077
SL-6 R/B(2)             
1 20666U 90055D   26199.36381894  .00000983  00000+0  83887-4 0  9995
2 20666  62.7806 169.2767 0045631   9.4180 350.7764 15.04095535957842
SL-8 R/B                
1 20775U 90078B   26199.82653209  .00007576  00000+0  21455-3 0  9991
2 20775  82.9033 133.0234 0343115 291.1702  65.3176 14.93634893828841
SL-8 R/B                
1 21088U 91006B   26199.73323036  .00000072  00000+0  56455-4 0  9996
2 21088  82.9404  72.5631 0023233  30.9943  33.4338 13.77509708782113
OKEAN-3                 
1 21397U 91039A   26199.31295503  .00001743  00000+0  11931-3 0  9991
2 21397  82.5147 210.1943 0012685 242.6649 117.3287 15.05445294884688
COSMOS 2151             
1 21422U 91042A   26199.80271966  .00000975  00000+0  75140-4 0  9994
2 21422  82.4983 317.1696 0011621 342.9390  17.1442 15.00518935882858
SL-14 R/B               
1 21423U 91042B   26199.75327131  .00000164  00000+0  17670-4 0  9999
2 21423  82.4930  97.2949 0017297 165.3090 194.8630 14.81919130872487
ERS-1                   
1 21574U 91050A   26199.30406798  .00000186  00000+0  73885-4 0  9997
2 21574  98.7796 220.7620 0032093 172.6051 187.5616 14.39534846834528
ARIANE 40 R/B           
1 21610U 91050F   26199.73842125  .00000091  00000+0  39496-4 0  9998
2 21610  98.1860 246.9236 0004010  53.5902 306.5658 14.42972912837894
INTERCOSMOS 25          
1 21819U 91086A   26199.80769124  .00000281  00000+0  52111-4 0  9993
2 21819  82.6002 230.6750 1484757 194.1302 161.3537 12.12241798512573
SL-8 R/B                
1 21876U 92008B   26199.89644205  .00000103  00000+0  90021-4 0  9997
2 21876  82.9275 170.2119 0035847 126.5674 262.4644 13.75984397727468
SL-8 R/B                
1 21938U 92020B   26199.69640454 -.00000007  00000+0 -22715-4 0  9990
2 21938  82.9277  56.4486 0027842 293.3232 131.6965 13.75549962719144
USA 81                  
1 21949U 92023A   26199.84978567  .00000082  00000+0  22870-4 0  9994
2 21949  85.0048  55.7280 0001822  65.0944 295.0438 14.32405478113565
COSMOS 2219             
1 22219U 92076A   26199.81013377 -.00000262  00000+0 -11289-3 0  9992
2 22219  71.0609 103.9672 0018471 352.0802   8.0026 14.14107353736911
SL-16 R/B               
1 22220U 92076B   26199.30624914 -.00000046  00000+0  80149-6 0  9996
2 22220  71.0002 273.2281 0015035 258.2455 168.0621 14.16878055740336
COSMOS 2221             
1 22236U 92080A   26199.83119367  .00000826  00000+0  70056-4 0  9996
2 22236  82.5048 153.4471 0015890 109.0862 251.2082 14.96609598800407
SL-16 R/B               
1 22285U 92093B   26199.83165454 -.00000264  00000+0 -11077-3 0  9997
2 22285  71.0214  88.9616 0002174 124.1243 236.0086 14.15464363731716
COSMOS 2228             
1 22286U 92094A   26199.82410223  .00000867  00000+0  71584-4 0  9992
2 22286  82.5186 111.7395 0016582 216.0873 143.9232 14.97681663795688
SL-16 R/B               
1 22566U 93016B   26199.74440889  .00000296  00000+0  17643-3 0  9991
2 22566  71.0087 299.9262 0008683 131.6460 228.5407 14.15314699720719
COSMOS 2242             
1 22626U 93024A   26199.79808981  .00000846  00000+0  71163-4 0  9992
2 22626  82.5200 141.3000 0014877 219.4489 140.5651 14.96990703800008
SL-16 R/B               
1 22803U 93059B   26199.82754385  .00000107  00000+0  76716-4 0  9998
2 22803  70.9901  94.5809 0016861   3.1530 356.9697 14.17249631698110
ARIANE 40 R/B           
1 22830U 93061H   26199.76760725  .00000053  00000+0  35162-4 0  9999
2 22830  98.4803 265.9663 0009547 253.8815 106.1318 14.32919285712872
COSMOS 2278             
1 23087U 94023A   26199.86000574  .00000136  00000+0  95532-4 0  9992
2 23087  71.0518 260.6582 0009440 200.1081 159.9671 14.14394101663351
SL-16 R/B               
1 23088U 94023B   26199.84761550  .00000276  00000+0  16691-3 0  9992
2 23088  70.9989 155.4414 0001327 113.8975 246.2287 14.15026243664641
SL-16 R/B               
1 23343U 94074B   26199.54533031  .00000159  00000+0  27855-4 0  9995
2 23343  97.6986 224.9583 0007406 144.5054   8.1125 14.79525915706597
SL-16 R/B               
1 23405U 94077B   26199.77805874  .00000118  00000+0  84820-4 0  9999
2 23405  70.9821  76.7015 0004127 300.6500  59.4215 14.15574721634788
ARIANE 40+ R/B          
1 23561U 95021B   26199.82210918  .00000107  00000+0  47881-4 0  9991
2 23561  98.4398 269.4378 0007961 107.3638   4.4890 14.39848742638114
SL-16 R/B               
1 23705U 95058B   26199.57934875  .00000281  00000+0  16783-3 0  9997
2 23705  71.0207 265.4502 0014647 278.4397  81.5065 14.15510629586370
