OBJECT_NAME,OBJECT_ID,EPOCH,MEAN_MOTION,ECCENTRICITY,INCLINATION,RA_OF_ASC_NODE,ARG_OF_PERICENTER,MEAN_ANOMALY,EPHEMERIS_TYPE,CLASSIFICATION_TYPE,NORAD_CAT_ID,ELEMENT_SET_NO,REV_AT_EPOCH,BSTAR,MEAN_MOTION_DOT,MEAN_MOTION_DDOT
SL-14 R/B,1990-018B,2026-07-18T19:22:48.669600,14.82235375,.001675,82.5214,100.5538,25.5795,334.6244,0,U,20511,999,94200,.21732E-4,.197E-5,0
HST,1990-037B,2026-07-18T18:13:36.772032,15.31081460,.0002157,28.4721,224.7316,138.2222,221.8539,0,U,20580,999,79341,.89242E-4,.2987E-4,0
SL-16 R/B,1990-046B,2026-07-18T19:55:05.441376,14.15027041,.0012309,70.9992,22.4892,107.9035,252.3431,0,U,20625,999,86694,.17696E-3,.295E-5,0
COSMOS 2084,1990-055A,2026-07-18T20:42:29.546208,15.06230761,.000853,62.7878,247.9670,321.6867,38.3626,0,U,20663,999,95607,.61531E-4,.703E-5,0
SL-6 R/B(2),1990-055D,2026-07-18T08:43:53.956416,15.04095535,.00456318,62.7806,169.2767,9.4180,350.7764,0,U,20666,999,95784,.83887169E-4,.983E-5,0
SL-8 R/B,1990-078B,2026-07-18T19:50:12.372576,14.93634893,.0343115,82.9033,133.0234,291.1702,65.3176,0,U,20775,999,82884,.21455E-3,.7576E-4,0
SL-8 R/B,1991-006B,2026-07-18T17:35:51.103104,13.77509708,.0023233,82.9404,72.5631,30.9943,33.4338,0,U,21088,999,78211,.56455E-4,.72E-6,0
OKEAN-3,1991-039A,2026-07-18T07:30:39.314592,15.05445294,.00126859,82.5147,210.1943,242.6649,117.3287,0,U,21397,999,88468,.11930893E-3,.1743E-4,0
COSMOS 2151,1991-042A,2026-07-18T19:15:54.978624,15.00518935,.0011621,82.4983,317.1696,342.9390,17.1442,0,U,21422,999,88285,.7514E-4,.975E-5,0
SL-14 R/B,1991-042B,2026-07-18T18:04:42.641184,14.81919130,.0017297,82.4930,97.2949,165.3090,194.8630,0,U,21423,999,87248,.1767E-4,.164E-5,0
ERS-1,1991-050A,2026-07-18T07:17:51.473472,14.39534846,.00320938,98.7796,220.7620,172.6051,187.5616,0,U,21574,999,83452,.7388501E-4,.186E-5,0
ARIANE 40 R/B,1991-050F,2026-07-18T17:43:19.596000,14.42972912,.000401,98.1860,246.9236,53.5902,306.5658,0,U,21610,999,83789,.39496E-4,.91E-6,0
INTERCOSMOS 25,1991-086A,2026-07-18T19:23:04.523136,12.12241798,.1484757,82.6002,230.6750,194.1302,161.3537,0,U,21819,999,51257,.52111E-4,.281E-5,0
SL-8 R/B,1992-008B,2026-07-18T21:30:52.593120,13.75984397,.0035847,82.9275,170.2119,126.5674,262.4644,0,U,21876,999,72746,.90021E-4,.103E-5,0
SL-8 R/B,1992-020B,2026-07-18T16:42:49.352256,13.75549962,.0027842,82.9277,56.4486,293.3232,131.6965,0,U,21938,999,71914,-.22715E-4,-.7E-7,0
USA 81,1992-023A,2026-07-18T20:23:41.481888,14.32405478,.0001822,85.0048,55.7280,65.0944,295.0438,0,U,21949,999,11356,.2287E-4,.82E-6,0
COSMOS 2219,1992-076A,2026-07-18T19:26:35.557728,14.14107353,.0018471,71.0609,103.9672,352.0802,8.0026,0,U,22219,999,73691,-.11289E-3,-.262E-5,0
SL-16 R/B,1992-076B,2026-07-18T07:20:59.925696,14.16878055,.00150351,71.0002,273.2281,258.2455,168.0621,0,U,22220,999,74033,.801488E-6,-.46E-6,0
COSMOS 2221,1992-080A,2026-07-18T19:56:55.133088,14.96609598,.001589,82.5048,153.4471,109.0862,251.2082,0,U,22236,999,80040,.70056E-4,.826E-5,0
SL-16 R/B,1992-093B,2026-07-18T19:57:34.952256,14.15464363,.0002174,71.0214,88.9616,124.1243,236.0086,0,U,22285,999,73171,-.11077E-3,-.264E-5,0
COSMOS 2228,1992-094A,2026-07-18T19:46:42.432672,14.97681663,.0016582,82.5186,111.7395,216.0873,143.9232,0,U,22286,999,79568,.71584E-4,.867E-5,0
SL-16 R/B,1993-016B,2026-07-18T17:51:56.928096,14.15314699,.0008683,71.0087,299.9262,131.6460,228.5407,0,U,22566,999,72071,.17643E-3,.296E-5,0
COSMOS 2242,1993-024A,2026-07-18T19:09:14.959584,14.96990703,.0014877,82.5200,141.3000,219.4489,140.5651,0,U,22626,999,80000,.71163E-4,.846E-5,0
SL-16 R/B,1993-059B,2026-07-18T19:51:39.788640,14.17249631,.0016861,70.9901,94.5809,3.1530,356.9697,0,U,22803,999,69811,.76716E-4,.107E-5,0
ARIANE 40 R/B,1993-061H,2026-07-18T18:25:21.266400,14.32919285,.0009547,98.4803,265.9663,253.8815,106.1318,0,U,22830,999,71287,.35162E-4,.53E-6,0
COSMOS 2278,1994-023A,2026-07-18T20:38:24.495936,14.14394101,.000944,71.0518,260.6582,200.1081,159.9671,0,U,23087,999,66335,.95532E-4,.136E-5,0
SL-16 R/B,1994-023B,2026-07-18T20:20:33.979200,14.15026243,.0001327,70.9989,155.4414,113.8975,246.2287,0,U,23088,999,66464,.16691E-3,.276E-5,0
SL-16 R/B,1994-074B,2026-07-18T13:05:16.538784,14.79525915,.00074065,97.6986,224.9583,144.5054,8.1125,0,U,23343,999,70659,.27855453E-4,.159E-5,0
SL-16 R/B,1994-077B,2026-07-18T18:40:24.275136,14.15574721,.0004127,70.9821,76.7015,300.6500,59.4215,0,U,23405,999,63478,.8482E-4,.118E-5,0
ARIANE 40+ R/B,1995-021B,2026-07-18T19:43:50.233152,14.39848742,.0007961,98.4398,269.4378,107.3638,4.4890,0,U,23561,999,63811,.47881E-4,.107E-5,0
SL-16 R/B,1995-058B,2026-07-18T13:54:15.732000,14.15510629,.0014647,71.0207,265.4502,278.4397,81.5065,0,U,23705,999,58637,.16783E-3,.281E-5,0
